OBJECT_NAME,OBJECT_ID,EPOCH,MEAN_MOTION,ECCENTRICITY,INCLINATION,RA_OF_ASC_NODE,ARG_OF_PERICENTER,MEAN_ANOMALY,EPHEMERIS_TYPE,CLASSIFICATION_TYPE,NORAD_CAT_ID,ELEMENT_SET_NO,REV_AT_EPOCH,BSTAR,MEAN_MOTION_DOT,MEAN_MOTION_DDOT
TIANMU-1 21,2023-208C,2026-07-16T20:05:02.746176,15.35570536,.0006862,97.4535,317.7774,198.1181,161.9819,0,U,58662,999,14211,.16026E-3,.5461E-4,0
TIANMU-1 22,2023-208D,2026-07-16T19:20:37.936032,15.31440755,.0002894,97.4527,314.1796,210.8868,149.2204,0,U,58663,999,14186,.13791E-3,.4108E-4,0
TIANMU-1 15,2024-004A,2026-07-16T20:25:37.130016,15.26923669,.0006184,97.4669,24.0417,221.3161,138.7610,0,U,58700,999,14030,.11163E-3,.2877E-4,0
TIANMU-1 16,2024-004B,2026-07-16T20:10:17.342400,15.27026698,.0004536,97.4617,23.2468,237.6933,122.3866,0,U,58701,999,14030,.10727E-3,.277E-4,0
TIANMU-1 17,2024-004C,2026-07-16T19:49:23.216160,15.27024525,.0003985,97.4644,23.7281,243.9424,116.1405,0,U,58702,999,14029,.11008E-3,.2844E-4,0
TIANMU-1 18,2024-004D,2026-07-16T20:49:27.063840,15.26939864,.0003893,97.4661,24.0326,217.2343,142.8627,0,U,58703,999,14030,.10714E-3,.2759E-4,0
INSAT-3DS,2024-033A,2026-07-16T20:33:18.577728,1.00270824,.0001126,0.0865,264.4409,223.6610,196.9719,0,U,58990,999,4736,0,-.166E-5,0
METEOR-M2 4,2024-039A,2026-07-16T20:49:32.255616,14.22432257,.000826,98.7026,156.7954,84.6302,275.5818,0,U,59051,999,12348,.133E-4,-.14E-6,0
GOES 19,2024-119A,2026-07-16T19:48:30.455136,1.00271085,.0000394,0.0160,95.4334,109.4295,311.7165,0,U,60133,999,726,0,-.259E-5,0
MTG-S1,2025-143A,2026-07-16T19:53:38.707008,1.00274013,.0003394,0.5834,345.5204,260.4248,346.7280,0,U,64723,999,371,0,-.17E-6,0
METOP-SGA1,2025-172A,2026-07-14T18:20:46.629312,14.19819127,.00070989,98.6631,254.9090,333.3306,26.7504,0,U,65159,999,4770,.2916334E-4,.19E-6,0
FENGYUN 3H,2025-219A,2026-07-16T10:12:36.292320,14.19924884,.0001116,98.6770,137.6269,62.4486,297.6803,0,U,65815,999,4153,.22433E-4,.4E-7,0
