TIANMU-1 21             
1 58662U 23208C   26197.83683734  .00005461  00000+0  16026-3 0  9992
2 58662  97.4535 317.7774 0006862 198.1181 161.9819 15.35570536142113
TIANMU-1 22             
1 58663U 23208D   26197.80599463  .00004108  00000+0  13791-3 0  9998
2 58663  97.4527 314.1796 0002894 210.8868 149.2204 15.31440755141868
TIANMU-1 15             
1 58700U 24004A   26197.85112419  .00002877  00000+0  11163-3 0  9994
2 58700  97.4669  24.0417 0006184 221.3161 138.7610 15.26923669140309
TIANMU-1 16             
1 58701U 24004B   26197.84047850  .00002770  00000+0  10727-3 0  9997
2 58701  97.4617  23.2468 0004536 237.6933 122.3866 15.27026698140305
TIANMU-1 17             
1 58702U 24004C   26197.82596315  .00002844  00000+0  11008-3 0  9996
2 58702  97.4644  23.7281 0003985 243.9424 116.1405 15.27024525140291
TIANMU-1 18             
1 58703U 24004D   26197.86767435  .00002759  00000+0  10714-3 0  9992
2 58703  97.4661  24.0326 0003893 217.2343 142.8627 15.26939864140301
INSAT-3DS               
1 58990U 24033A   26197.85646502 -.00000166  00000+0  00000+0 0  9996
2 58990   0.0865 264.4409 0001126 223.6610 196.9719  1.00270824 47367
METEOR-M2 4             
1 59051U 24039A   26197.86773444 -.00000014  00000+0  13300-4 0  9992
2 59051  98.7026 156.7954 0008260  84.6302 275.5818 14.22432257123486
GOES 19                 
1 60133U 24119A   26197.82535249 -.00000259  00000+0  00000+0 0  9998
2 60133   0.0160  95.4334 0000394 109.4295 311.7165  1.00271085  7269
MTG-S1                  
1 64723U 25143A   26197.82892022 -.00000017  00000+0  00000+0 0  9992
2 64723   0.5834 345.5204 0003394 260.4248 346.7280  1.00274013  3711
METOP-SGA1              
1 65159U 25172A   26195.76442858  .00000019  00000+0  29163-4 0  9994
2 65159  98.6631 254.9090 0007098 333.3306  26.7504 14.19819127 47700
FENGYUN 3H              
1 65815U 25219A   26197.42542005  .00000004  00000+0  22433-4 0  9992
2 65815  98.6770 137.6269 0001116  62.4486 297.6803 14.19924884 41535
